NORAD_CAT_ID,OBJECT_NAME,OBJECT_TYPE,EPOCH,MEAN_MOTION,ECCENTRICITY,INCLINATION,RA_OF_ASC_NODE,ARG_OF_PERICENTER,MEAN_ANOMALY,BSTAR,MEAN_MOTION_DOT,MEAN_MOTION_DDOT,TLE_LINE0,TLE_LINE1,TLE_LINE2,SEMIMAJOR_AXIS,PERIOD,APOGEE,PERIGEE,DECAYED
54774.0,STARLINK-5454,PAYLOAD,2024-02-23 11:38:51,15.08852559,0.000164,53.2167,134.1521,87.0984,273.0196,0.00010171,1.332e-05,0.0,0 STARLINK-5454,1 54774U 22175S   24054.48531759  .00001332  00000-0  10171-3 0  9993,2 54774  53.2167 134.1521 0001640  87.0984 273.0196 15.08852559 65475,6917.842,95.437,540.842,538.572,0.0
54774.0,STARLINK-5454,PAYLOAD,2024-02-23 22:46:33,15.08848221,0.0001614,53.2166,132.0695,88.9456,271.1721,5.8294e-05,6.4e-06,0.0,0 STARLINK-5454,1 54774U 22175S   24054.94899814  .00000640  00000-0  58294-4 0  9993,2 54774  53.2166 132.0695 0001614  88.9456 271.1721 15.08848221 65540,6917.855,95.437,540.837,538.604,0.0
54774.0,STARLINK-5454,PAYLOAD,2024-02-24 11:29:39,15.08840737,0.0001678,53.2169,129.6925,87.9624,272.1561,8.5623e-05,1.075e-05,0.0,0 STARLINK-5454,1 54774U 22175S   24055.47892416  .00001075  00000-0  85623-4 0  9992,2 54774  53.2169 129.6925 0001678  87.9624 272.1561 15.08840737 65623,6917.878,95.438,540.904,538.582,0.0
54774.0,STARLINK-5454,PAYLOAD,2024-02-25 11:20:25,15.08854322,0.0001594,53.2165,125.2327,85.5698,274.5476,0.00010481,1.381e-05,0.0,0 STARLINK-5454,1 54774U 22175S   24056.47251692  .00001381  00000-0  10481-3 0  9997,2 54774  53.2165 125.2327 0001594  85.5698 274.5476 15.08854322 65771,6917.837,95.437,540.804,538.599,0.0
54774.0,STARLINK-5454,PAYLOAD,2024-02-25 14:31:11,15.08860345,0.0001656,53.2171,124.638,85.6059,274.5122,9.4498e-05,1.217e-05,0.0,0 STARLINK-5454,1 54774U 22175S   24056.60499333  .00001217  00000-0  94498-4 0  9997,2 54774  53.2171 124.6380 0001656  85.6059 274.5122 15.08860345 67953,6917.818,95.436,540.829,538.538,0.0
54774.0,STARLINK-5454,PAYLOAD,2024-02-25 20:52:44,15.08847282,0.0001493,53.2154,123.4472,84.9658,275.1504,0.00019081,2.751e-05,0.0,0 STARLINK-5454,1 54774U 22175S   24056.86995981  .00002751  00000-0  19081-3 0  9993,2 54774  53.2154 123.4472 0001493  84.9658 275.1504 15.08847282 67999,6917.858,95.437,540.756,538.69,0.0
54774.0,STARLINK-5454,PAYLOAD,2024-02-26 09:35:49,15.08846041,0.0001854,53.2164,121.0675,91.2673,268.8531,0.0001846,2.651e-05,0.0,0 STARLINK-5454,1 54774U 22175S   24057.39988061  .00002651  00000-0  18460-3 0  9992,2 54774  53.2164 121.0675 0001854  91.2673 268.8531 15.08846041 68079,6917.862,95.437,541.009,538.444,0.0
54774.0,STARLINK-5454,PAYLOAD,2024-02-27 03:05:04,15.08840431,0.0001893,53.2158,117.7969,116.384,243.7347,-4.7308e-05,-1.041e-05,0.0,0 STARLINK-5454,1 54774U 22175S   24058.12852051 -.00001041  00000-0 -47308-4 0  9991,2 54774  53.2158 117.7969 0001893 116.3840 243.7347 15.08840431 66025,6917.879,95.438,541.054,538.435,0.0
54774.0,STARLINK-5454,PAYLOAD,2024-02-27 11:02:00,15.08834837,0.0001324,53.2157,116.3102,78.6782,281.4358,-5.8787e-05,-1.223e-05,0.0,0 STARLINK-5454,1 54774U 22175S   24058.45972532 -.00001223  00000-0 -58787-4 0  9999,2 54774  53.2157 116.3102 0001324  78.6782 281.4358 15.08834837 68231,6917.896,95.438,540.677,538.845,0.0
54774.0,STARLINK-5454,PAYLOAD,2024-02-27 20:34:19,15.0883441,0.0001362,53.2158,114.5266,85.3275,274.7873,-9.195e-06,-4.34e-06,0.0,0 STARLINK-5454,1 54774U 22175S   24058.85716707 -.00000434  00000-0 -91950-5 0  9996,2 54774  53.2158 114.5266 0001362  85.3275 274.7873 15.08834410 68297,6917.897,95.438,540.705,538.82,0.0
54774.0,STARLINK-5454,PAYLOAD,2024-02-28 12:28:10,15.08846147,0.0001438,53.2152,111.552,93.7791,266.3366,0.00027297,4.06e-05,0.0,0 STARLINK-5454,1 54774U 22175S   24059.51956366  .00004060  00000-0  27297-3 0  9995,2 54774  53.2152 111.5520 0001438  93.7791 266.3366 15.08846147 66237,6917.862,95.437,540.721,538.732,0.0
54774.0,STARLINK-5454,PAYLOAD,2024-02-28 20:25:06,15.08838461,0.0001662,53.2164,110.0667,94.2008,265.9174,0.00015322,2.151e-05,0.0,0 STARLINK-5454,1 54774U 22175S   24059.85076834  .00002151  00000-0  15322-3 0  9990,2 54774  53.2164 110.0667 0001662  94.2008 265.9174 15.08838461 66289,6917.885,95.438,540.9,538.6,0.0
54774.0,STARLINK-5454,PAYLOAD,2024-02-29 10:43:34,15.08841179,0.0001419,53.2157,107.3906,89.2349,270.8806,0.00021978,3.212e-05,0.0,0 STARLINK-5454,1 54774U 22175S   24060.44692870  .00003212  00000-0  21978-3 0  9994,2 54774  53.2157 107.3906 0001419  89.2349 270.8806 15.08841179 68535,6917.877,95.437,540.723,538.76,0.0
54774.0,STARLINK-5454,PAYLOAD,2024-02-29 20:15:53,15.08841977,0.0001452,53.2154,105.6059,87.283,272.8328,0.00017389,2.481e-05,0.0,0 STARLINK-5454,1 54774U 22175S   24060.84436872  .00002481  00000-0  17389-3 0  9994,2 54774  53.2154 105.6059 0001452  87.2830 272.8328 15.08841977 68595,6917.874,95.437,540.744,538.735,0.0
54774.0,STARLINK-5454,PAYLOAD,2024-03-01 02:37:25,15.08840446,0.0001444,53.215,104.4165,86.9698,273.146,6.9476e-05,8.18e-06,0.0,0 STARLINK-5454,1 54774U 22175S   24061.10932828  .00000818  00000-0  69476-4 0  9993,2 54774  53.2150 104.4165 0001444  86.9698 273.1460 15.08840446 66471,6917.879,95.438,540.743,538.745,0.0
54774.0,STARLINK-5454,PAYLOAD,2024-03-01 08:58:58,15.08843433,0.0001406,53.215,103.227,87.008,273.1073,0.00010692,1.414e-05,0.0,0 STARLINK-5454,1 54774U 22175S   24061.37428776  .00001414  00000-0  10692-3 0  9992,2 54774  53.2150 103.2270 0001406  87.0080 273.1073 15.08843433 68673,6917.87,95.437,540.708,538.762,0.0
54774.0,STARLINK-5454,PAYLOAD,2024-03-02 08:49:44,15.0886882,0.0001927,53.2167,98.7664,72.7797,287.3406,0.00051202,7.877e-05,0.0,0 STARLINK-5454,1 54774U 22175S   24062.36787625  .00007877  00000-0  51202-3 0  9994,2 54774  53.2167  98.7664 0001927  72.7797 287.3406 15.08868820 66661,6917.792,95.436,540.99,538.324,0.0
54774.0,STARLINK-5454,PAYLOAD,2024-03-03 05:29:46,15.08839366,0.0001576,53.2149,94.9004,86.6774,273.4398,0.00010054,1.312e-05,0.0,0 STARLINK-5454,1 54774U 22175S   24063.22901157  .00001312  00000-0  10054-3 0  9996,2 54774  53.2149  94.9004 0001576  86.6774 273.4398 15.08839366 66799,6917.882,95.438,540.838,538.657,0.0
54774.0,STARLINK-5454,PAYLOAD,2024-03-03 11:51:19,15.08840183,0.0001581,53.2166,93.7118,86.326,273.7913,6.9848e-05,8.24e-06,0.0,0 STARLINK-5454,1 54774U 22175S   24063.49397148  .00000824  00000-0  69848-4 0  9997,2 54774  53.2166  93.7118 0001581  86.3260 273.7913 15.08840183 68993,6917.88,95.438,540.839,538.651,0.0
54774.0,STARLINK-5454,PAYLOAD,2024-03-04 08:31:19,15.08850108,0.0001604,53.2164,89.8465,82.5885,277.529,0.00056701,8.75e-05,0.0,0 STARLINK-5454,1 54774U 22175S   24064.35508617  .00008750  00000-0  56701-3 0  9997,2 54774  53.2164  89.8465 0001604  82.5885 277.5290 15.08850108 66962,6917.849,95.437,540.824,538.605,0.0
54774.0,STARLINK-5454,PAYLOAD,2024-03-04 18:03:38,15.0883801,0.0001881,53.2167,88.0601,109.9041,250.2154,0.00010975,1.459e-05,0.0,0 STARLINK-5454,1 54774U 22175S   24064.75253042  .00001459  00000-0  10975-3 0  9992,2 54774  53.2167  88.0601 0001881 109.9041 250.2154 15.08838010 67026,6917.886,95.438,541.053,538.45,0.0
54774.0,STARLINK-5454,PAYLOAD,2024-03-05 08:22:07,15.08828125,0.000174,53.2167,85.3861,96.0773,264.0417,-0.00011669,-2.144e-05,0.0,0 STARLINK-5454,1 54774U 22175S   24065.34869753 -.00002144  00000-0 -11669-3 0  9995,2 54774  53.2167  85.3861 0001740  96.0773 264.0417 15.08828125 69276,6917.917,95.438,540.985,538.578,0.0
54774.0,STARLINK-5454,PAYLOAD,2024-03-05 17:54:26,15.0883342,0.0001726,53.2165,83.6012,100.161,259.9577,5.4223e-05,5.75e-06,0.0,0 STARLINK-5454,1 54774U 22175S   24065.74613788  .00000575  00000-0  54223-4 0  9992,2 54774  53.2165  83.6012 0001726 100.1610 259.9577 15.08833420 67175,6917.901,95.438,540.96,538.571,0.0
54774.0,STARLINK-5454,PAYLOAD,2024-03-06 08:12:54,15.08841934,0.0001699,53.2164,80.9252,102.7039,257.4143,0.00071277,0.00011075,0.0,0 STARLINK-5454,1 54774U 22175S   24066.34230169  .00011075  00000-0  71277-3 0  9991,2 54774  53.2164  80.9252 0001699 102.7039 257.4143 15.08841934 69423,6917.874,95.437,540.915,538.564,0.0
54774.0,STARLINK-5454,PAYLOAD,2024-03-07 09:39:05,15.08844868,0.0001637,53.2155,76.1664,100.5927,259.525,0.00032022,4.813e-05,0.0,0 STARLINK-5454,1 54774U 22175S   24067.40214167  .00004813  00000-0  32022-3 0  9996,2 54774  53.2155  76.1664 0001637 100.5927 259.5250 15.08844868 69589,6917.866,95.437,540.863,538.598,0.0
54774.0,STARLINK-5454,PAYLOAD,2024-03-08 07:54:28,15.08847731,0.0001671,53.2163,72.0018,100.7345,259.3836,0.00022487,3.293e-05,0.0,0 STARLINK-5454,1 54774U 22175S   24068.32950015  .00003293  00000-0  22487-3 0  9992,2 54774  53.2163  72.0018 0001671 100.7345 259.3836 15.08847731 67566,6917.857,95.437,540.878,538.566,0.0
54774.0,STARLINK-5454,PAYLOAD,2024-03-08 17:26:47,15.08843632,0.0001563,53.216,70.2146,97.9937,262.1233,0.00014911,2.086e-05,0.0,0 STARLINK-5454,1 54774U 22175S   24068.72694076  .00002086  00000-0  14911-3 0  9990,2 54774  53.2160  70.2146 0001563  97.9937 262.1233 15.08843632 69784,6917.869,95.437,540.816,538.653,0.0
54774.0,STARLINK-5454,PAYLOAD,2024-03-09 04:34:29,15.08843798,0.0001624,53.2153,68.1361,89.3196,270.7983,0.00014819,2.071e-05,0.0,0 STARLINK-5454,1 54774U 22175S   24069.19062141  .00002071  00000-0  14819-3 0  9995,2 54774  53.2153  68.1361 0001624  89.3196 270.7983 15.08843798 67699,6917.869,95.437,540.857,538.61,0.0
54774.0,STARLINK-5454,PAYLOAD,2024-03-09 09:20:38,15.08847587,0.0001723,53.216,67.2433,89.6565,270.4625,0.00020776,3.021e-05,0.0,0 STARLINK-5454,1 54774U 22175S   24069.38934025  .00003021  00000-0  20776-3 0  9990,2 54774  53.2160  67.2433 0001723  89.6565 270.4625 15.08847587 69883,6917.857,95.437,540.914,538.53,0.0
54774.0,STARLINK-5454,PAYLOAD,2024-03-09 17:17:34,15.08842702,0.0001722,53.2165,65.7557,93.8381,266.2808,0.00011041,1.47e-05,0.0,0 STARLINK-5454,1 54774U 22175S   24069.72054131  .00001470  00000-0  11041-3 0  9990,2 54774  53.2165  65.7557 0001722  93.8381 266.2808 15.08842702 69936,6917.872,95.437,540.928,538.546,0.0
